AOR-E (EGNOS/PRN 120)   
1 24307U 96053A   18231.37695105 -.00000145  00000-0  00000+0 0  9990
2 24307   3.4963  75.5847 0004221  57.0131 315.2916  1.00272372 80363
CRE (WAAS/PRN 138)      
1 28868U 05036A   18231.52717506 -.00000093  00000-0  00000+0 0  9996
2 28868   0.0275 330.3252 0002391 124.9053 315.0508  1.00271697 47494
CRW (WAAS/PRN 135)      
1 28884U 05041A   18232.19626744  .00000060  00000-0  00000+0 0  9990
2 28884   0.0655 279.7435 0001586 233.9855 112.4001  1.00272712 46966
IOR-W (EGNOS/PRN 126)   
1 28899U 05044A   18230.97000673 -.00000009  00000-0  00000-0 0  9995
2 28899   2.6985  20.0158 0003351 133.7834 226.5976  1.00273259 46854
MTSAT-2 (MSAS/PRN 137)  
1 28937U 06004A   18231.53005689 -.00000262  00000-0  00000-0 0  9991
2 28937   0.0829 298.2821 0003946 218.2979 147.0870  1.00271933 45813
QZS-1 (QZSS/PRN 183)    
1 37158U 10045A   18231.67537519 -.00000259  00000-0  00000+0 0  9998
2 37158  41.1140 153.1329 0759529 270.7648 280.0739  1.00242661 29059
GSAT-8 (GAGAN/PRN 127)  
1 37605U 11022A   18231.51800171  .00000066  00000-0  00000+0 0  9996
2 37605   0.0442 282.8047 0003168 335.4647 311.0457  1.00274382 26572
LUCH 5A (SDCM/PRN 140)  
1 37951U 11074B   18231.54042132 -.00000065  00000-0  00000-0 0  9996
2 37951   1.9529 144.9365 0001526 337.8743 206.6851  1.00268861 24527
SES-5 (EGNOS/PRN 136)   
1 38652U 12036A   18231.31089969  .00000014  00000-0  00000+0 0  9990
2 38652   0.0460 273.0864 0002120 222.4601 308.9483  1.00272930 22405
GSAT-10 (GAGAN/PRN 128) 
1 38779U 12051B   18231.85799002 -.00000183  00000-0  00000+0 0  9990
2 38779   0.0543 281.1102 0002717 171.8955 267.0145  1.00271599 21637
LUCH 5B (SDCM/PRN 125)  
1 38977U 12061A   18231.86275777 -.00000151  00000-0  00000+0 0  9995
2 38977   4.3934  71.7764 0002286   0.1719 190.5590  1.00270510 21511
ASTRA 5B (EGNOS/PRN 123)
1 39617U 14011B   18231.80674413  .00000136  00000-0  00000+0 0  9990
2 39617   0.0752 293.1902 0004198 216.5647 140.2299  1.00272591 16204
LUCH 5V (SDCM/PRN 141)  
1 39727U 14023A   18232.22890043 -.00000284  00000-0  00000+0 0  9996
2 39727   1.8476 299.6101 0001985 215.9256 350.0686  1.00268626533861
GSAT-15 (GAGAN/PRN 139) 
1 41028U 15065A   18231.82893057 -.00000277  00000-0  00000+0 0  9995
2 41028   0.0745 282.0136 0001747 168.2018 269.7936  1.00273579 10209
E 117 W B (WAAS/PRN 131)
1 41589U 16038B   18231.41464022 -.00000031  00000-0  00000-0 0  9998
2 41589   0.0134 239.2090 0000303 358.1150 122.6617  1.00271334  8038
QZS-2 (QZSS/PRN 184)    
1 42738U 17028A   18231.46231583 -.00000187  00000-0  00000+0 0  9995
2 42738  44.0983 283.7050 0734852 271.4848  80.2160  1.00272538  4483
